{"type": "FeatureCollection", "features": [ {"type": "Feature", "properties": {"norad_id": 34833, "name": "IRIDIUM 33 DEB", "group": "iridium-33-debris", "lat": -79.8531556953128, "lon": 25.427927631562397, "alt_km": 737.3413867100671, "timestamp": "2025-12-24T03:53:30.032233+00:00", "meta": {"OBJECT_NAME": "IRIDIUM 33 DEB", "OBJECT_ID": "1997-051MH", "EPOCH": "2025-12-23T09:00:57.983040", "MEAN_MOTION": 14.52434607, "ECCENTRICITY": 0.0021326, "INCLINATION": 86.3921, "RA_OF_ASC_NODE": 46.4097, "ARG_OF_PERICENTER": 65.9688, "MEAN_ANOMALY": 63.9941, "EPHEMERIS_TYPE": 0, "CLASSIFICATION_TYPE": "U", "NORAD_CAT_ID": 34833, "ELEMENT_SET_NO": 999, "REV_AT_EPOCH": 87869, "BSTAR": 0.00067454, "MEAN_MOTION_DOT": 2.777e-05, "MEAN_MOTION_DDOT": 0}, "tle": {"line1": "1 34833U 97051MH  25357.37567110  .00002777  00000+0  67454-3 0  9996", "line2": "2 34833  86.3921  46.4097 0021326  65.9688  63.9941 14.52434607878694"}}, "geometry": {"type": "Point", "coordinates": [25.427927631562397, -79.8531556953128]}}, {"type": "Feature", "properties": {"norad_id": 34870, "name": "IRIDIUM 33 DEB", "group": "iridium-33-debris", "lat": 17.405081083364784, "lon": 127.69317895422085, "alt_km": 628.8564710427399, "timestamp": "2025-12-24T03:53:30.032243+00:00", "meta": {"OBJECT_NAME": "IRIDIUM 33 DEB", "OBJECT_ID": "1997-051MQ", "EPOCH": "2025-12-22T20:23:31.246080", "MEAN_MOTION": 14.76611259, "ECCENTRICITY": 0.00177501, "INCLINATION": 86.3115, "RA_OF_ASC_NODE": 309.4529, "ARG_OF_PERICENTER": 146.7714, "MEAN_ANOMALY": 243.206, "EPHEMERIS_TYPE": 0, "CLASSIFICATION_TYPE": "U", "NORAD_CAT_ID": 34870, "ELEMENT_SET_NO": 999, "REV_AT_EPOCH": 89060, "BSTAR": 0.0014600541, "MEAN_MOTION_DOT": 0.0001025, "MEAN_MOTION_DDOT": 0}, "tle": {"line1": "1 34870U 97051MQ  25356.84966720  .00010250  00000+0  14601-2 0  9998", "line2": "2 34870  86.3115 309.4529 0017750 146.7714 243.2060 14.76611259890602"}}, "geometry": {"type": "Point", "coordinates": [127.69317895422085, 17.405081083364784]}}, {"type": "Feature", "properties": {"norad_id": 34896, "name": "IRIDIUM 33 DEB", "group": "iridium-33-debris", "lat": -55.24477266013824, "lon": -43.746087704782944, "alt_km": 691.6365996808054, "timestamp": "2025-12-24T03:53:30.032253+00:00", "meta": {"OBJECT_NAME": "IRIDIUM 33 DEB", "OBJECT_ID": "1997-051MY", "EPOCH": "2025-12-23T15:50:48.504768", "MEAN_MOTION": 14.66376054, "ECCENTRICITY": 0.0025665, "INCLINATION": 86.33, "RA_OF_ASC_NODE": 321.7865, "ARG_OF_PERICENTER": 175.3645, "MEAN_ANOMALY": 1.4458, "EPHEMERIS_TYPE": 0, "CLASSIFICATION_TYPE": "U", "NORAD_CAT_ID": 34896, "ELEMENT_SET_NO": 999, "REV_AT_EPOCH": 87779, "BSTAR": 0.00090976, "MEAN_MOTION_DOT": 5.073e-05, "MEAN_MOTION_DDOT": 0}, "tle": {"line1": "1 34896U 97051MY  25357.66028362  .00005073  00000+0  90976-3 0  9995", "line2": "2 34896  86.3300 321.7865 0025665 175.3645   1.4458 14.66376054877791"}}, "geometry": {"type": "Point", "coordinates": [-43.746087704782944, -55.24477266013824]}}, {"type": "Feature", "properties": {"norad_id": 34926, "name": "IRIDIUM 33 DEB", "group": "iridium-33-debris", "lat": -85.5015747365856, "lon": -56.33710623804277, "alt_km": 667.2762419938799, "timestamp": "2025-12-24T03:53:30.032264+00:00", "meta": {"OBJECT_NAME": "IRIDIUM 33 DEB", "OBJECT_ID": "1997-051NF", "EPOCH": "2025-12-21T19:20:10.732992", "MEAN_MOTION": 14.5478701, "ECCENTRICITY": 0.00744409, "INCLINATION": 86.132, "RA_OF_ASC_NODE": 4.0681, "ARG_OF_PERICENTER": 261.3659, "MEAN_ANOMALY": 276.799, "EPHEMERIS_TYPE": 0, "CLASSIFICATION_TYPE": "U", "NORAD_CAT_ID": 34926, "ELEMENT_SET_NO": 999, "REV_AT_EPOCH": 86588, "BSTAR": 0.0043404181, "MEAN_MOTION_DOT": 0.0001936, "MEAN_MOTION_DDOT": 0}, "tle": {"line1": "1 34926U 97051NF  25355.80567978  .00019360  00000+0  43404-2 0  9991", "line2": "2 34926  86.1320   4.0681 0074440 261.3659 276.7990 14.54787010865888"}}, "geometry": {"type": "Point", "coordinates": [-56.33710623804277, -85.5015747365856]}}, {"type": "Feature", "properties": {"norad_id": 34985, "name": "IRIDIUM 33 DEB", "group": "iridium-33-debris", "lat": -58.384715399126115, "lon": -122.07184971217883, "alt_km": 750.4955186706748, "timestamp": "2025-12-24T03:53:30.032275+00:00", "meta": {"OBJECT_NAME": "IRIDIUM 33 DEB", "OBJECT_ID": "1997-051NR", "EPOCH": "2025-12-21T03:18:55.645056", "MEAN_MOTION": 14.42041434, "ECCENTRICITY": 0.00216435, "INCLINATION": 86.369, "RA_OF_ASC_NODE": 53.2972, "ARG_OF_PERICENTER": 191.5239, "MEAN_ANOMALY": 198.031, "EPHEMERIS_TYPE": 0, "CLASSIFICATION_TYPE": "U", "NORAD_CAT_ID": 34985, "ELEMENT_SET_NO": 999, "REV_AT_EPOCH": 87296, "BSTAR": 0.00042163262, "MEAN_MOTION_DOT": 1.407e-05, "MEAN_MOTION_DDOT": 0}, "tle": {"line1": "1 34985U 97051NR  25355.13814404  .00001407  00000+0  42163-3 0  9996", "line2": "2 34985  86.3690  53.2972 0021643 191.5239 198.0310 14.42041434872968"}}, "geometry": {"type": "Point", "coordinates": [-122.07184971217883, -58.384715399126115]}}, {"type": "Feature", "properties": {"norad_id": 35051, "name": "IRIDIUM 33 DEB", "group": "iridium-33-debris", "lat": 40.358937441166354, "lon": 7.015402898857267, "alt_km": 723.3082891080385, "timestamp": "2025-12-24T03:53:30.032289+00:00", "meta": {"OBJECT_NAME": "IRIDIUM 33 DEB", "OBJECT_ID": "1997-051NX", "EPOCH": "2025-12-22T18:31:37.744896", "MEAN_MOTION": 14.47639956, "ECCENTRICITY": 0.0010302, "INCLINATION": 86.324, "RA_OF_ASC_NODE": 4.4893, "ARG_OF_PERICENTER": 63.2582, "MEAN_ANOMALY": 296.9674, "EPHEMERIS_TYPE": 0, "CLASSIFICATION_TYPE": "U", "NORAD_CAT_ID": 35051, "ELEMENT_SET_NO": 999, "REV_AT_EPOCH": 87141, "BSTAR": 0.00060447572, "MEAN_MOTION_DOT": 2.248e-05, "MEAN_MOTION_DDOT": 0}, "tle": {"line1": "1 35051U 97051NX  25356.77196464  .00002248  00000+0  60448-3 0  9991", "line2": "2 35051  86.3240   4.4893 0010302  63.2582 296.9674 14.47639956871417"}}, "geometry": {"type": "Point", "coordinates": [7.015402898857267, 40.358937441166354]}}, {"type": "Feature", "properties": {"norad_id": 35052, "name": "IRIDIUM 33 DEB", "group": "iridium-33-debris", "lat": 4.629232594478549, "lon": -164.71944320551862, "alt_km": 770.9065088547322, "timestamp": "2025-12-24T03:53:30.032299+00:00", "meta": {"OBJECT_NAME": "IRIDIUM 33 DEB", "OBJECT_ID": "1997-051NY", "EPOCH": "2025-12-23T18:44:00.352896", "MEAN_MOTION": 14.38504324, "ECCENTRICITY": 0.0013174, "INCLINATION": 86.33, "RA_OF_ASC_NODE": 15.7419, "ARG_OF_PERICENTER": 54.1122, "MEAN_ANOMALY": 306.1297, "EPHEMERIS_TYPE": 0, "CLASSIFICATION_TYPE": "U", "NORAD_CAT_ID": 35052, "ELEMENT_SET_NO": 999, "REV_AT_EPOCH": 87434, "BSTAR": 0.00016916, "MEAN_MOTION_DOT": 5.37e-06, "MEAN_MOTION_DDOT": 0}, "tle": {"line1": "1 35052U 97051NY  25357.78055964  .00000537  00000+0  16916-3 0  9993", "line2": "2 35052  86.3300  15.7419 0013174  54.1122 306.1297 14.38504324874343"}}, "geometry": {"type": "Point", "coordinates": [-164.71944320551862, 4.629232594478549]}}, {"type": "Feature", "properties": {"norad_id": 35080, "name": "IRIDIUM 33 DEB", "group": "iridium-33-debris", "lat": 10.28655049338902, "lon": -133.777605937111, "alt_km": 572.2736059802246, "timestamp": "2025-12-24T03:53:30.032310+00:00", "meta": {"OBJECT_NAME": "IRIDIUM 33 DEB", "OBJECT_ID": "1997-051PF", "EPOCH": "2025-12-22T02:41:19.588992", "MEAN_MOTION": 14.87041021, "ECCENTRICITY": 0.005881, "INCLINATION": 86.2075, "RA_OF_ASC_NODE": 47.8936, "ARG_OF_PERICENTER": 147.3702, "MEAN_ANOMALY": 213.1179, "EPHEMERIS_TYPE": 0, "CLASSIFICATION_TYPE": "U", "NORAD_CAT_ID": 35080, "ELEMENT_SET_NO": 999, "REV_AT_EPOCH": 69827, "BSTAR": 0.0071992624, "MEAN_MOTION_DOT": 0.00067147, "MEAN_MOTION_DDOT": 0}, "tle": {"line1": "1 35080U 97051PF  25356.11203228  .00067147  00000+0  71993-2 0  9993", "line2": "2 35080  86.2075  47.8936 0058810 147.3702 213.1179 14.87041021698273"}}, "geometry": {"type": "Point", "coordinates": [-133.777605937111, 10.28655049338902]}}, {"type": "Feature", "properties": {"norad_id": 35297, "name": "IRIDIUM 33 DEB", "group": "iridium-33-debris", "lat": -3.874484983307064, "lon": 57.637767593550116, "alt_km": 749.2777586450347, "timestamp": "2025-12-24T03:53:30.032320+00:00", "meta": {"OBJECT_NAME": "IRIDIUM 33 DEB", "OBJECT_ID": "1997-051PM", "EPOCH": "2025-12-22T21:59:54.464640", "MEAN_MOTION": 14.45198443, "ECCENTRICITY": 0.0018277, "INCLINATION": 86.3852, "RA_OF_ASC_NODE": 58.4147, "ARG_OF_PERICENTER": 110.0569, "MEAN_ANOMALY": 250.2602, "EPHEMERIS_TYPE": 0, "CLASSIFICATION_TYPE": "U", "NORAD_CAT_ID": 35297, "ELEMENT_SET_NO": 999, "REV_AT_EPOCH": 70573, "BSTAR": 0.00060275, "MEAN_MOTION_DOT": 2.134e-05, "MEAN_MOTION_DDOT": 0}, "tle": {"line1": "1 35297U 97051PM  25356.91660260  .00002134  00000+0  60275-3 0  9991", "line2": "2 35297  86.3852  58.4147 0018277 110.0569 250.2602 14.45198443705738"}}, "geometry": {"type": "Point", "coordinates": [57.637767593550116, -3.874484983307064]}}, {"type": "Feature", "properties": {"norad_id": 35299, "name": "IRIDIUM 33 DEB", "group": "iridium-33-debris", "lat": 66.15265645889146, "lon": -160.2335777342439, "alt_km": 720.882346064297, "timestamp": "2025-12-24T03:53:30.032330+00:00", "meta": {"OBJECT_NAME": "IRIDIUM 33 DEB", "OBJECT_ID": "1997-051PP", "EPOCH": "2025-12-23T02:37:39.072000", "MEAN_MOTION": 14.40910271, "ECCENTRICITY": 0.00585818, "INCLINATION": 86.2874, "RA_OF_ASC_NODE": 28.6713, "ARG_OF_PERICENTER": 69.2338, "MEAN_ANOMALY": 346.7507, "EPHEMERIS_TYPE": 0, "CLASSIFICATION_TYPE": "U", "NORAD_CAT_ID": 35299, "ELEMENT_SET_NO": 999, "REV_AT_EPOCH": 86480, "BSTAR": 0.00082085889, "MEAN_MOTION_DOT": 2.707e-05, "MEAN_MOTION_DDOT": 0}, "tle": {"line1": "1 35299U 97051PP  25357.10948000  .00002707  00000+0  82086-3 0  9996", "line2": "2 35299  86.2874  28.6713 0058581  69.2338 346.7507 14.40910271864807"}}, "geometry": {"type": "Point", "coordinates": [-160.2335777342439, 66.15265645889146]}}]}